{
  "norad_id": 44886,
  "name": "SHUNTIAN",
  "history": [
    {
      "epoch": "2026-04-10T12:57:37.563840Z",
      "apogee_km": 589.9900733830136,
      "perigee_km": 575.7840155131044,
      "latitude_deg": 7.388973404187763e-06,
      "longitude_deg": 155.89118568837682,
      "height_km": 583.0875174840866,
      "semi_major_axis_km": 6961.024044448059,
      "eccentricity": 0.0010204,
      "inclination_deg": 97.7994,
      "raan_deg": 189.0701,
      "arg_perigee_deg": 293.6674,
      "mean_anomaly_deg": 66.3475,
      "mean_motion_rev_day": 14.94834323
    },
    {
      "epoch": "2026-04-11T19:29:03.440832Z",
      "apogee_km": 589.9842899425912,
      "perigee_km": 575.7615544695391,
      "latitude_deg": -8.589991496219252e-06,
      "longitude_deg": 58.04449453464774,
      "height_km": 583.6093104806259,
      "semi_major_axis_km": 6961.009922206064,
      "eccentricity": 0.0010216,
      "inclination_deg": 97.7995,
      "raan_deg": 190.3348,
      "arg_perigee_deg": 289.0031,
      "mean_anomaly_deg": 71.0082,
      "mean_motion_rev_day": 14.94838872
    },
    {
      "epoch": "2026-04-13T06:49:39.404640Z",
      "apogee_km": 590.0073735592587,
      "perigee_km": 575.7125486398236,
      "latitude_deg": 6.713134028754467e-05,
      "longitude_deg": -112.0925643261674,
      "height_km": 584.2090773406186,
      "semi_major_axis_km": 6960.996961099541,
      "eccentricity": 0.00102678,
      "inclination_deg": 97.7995,
      "raan_deg": 191.7991,
      "arg_perigee_deg": 283.7847,
      "mean_anomaly_deg": 76.2231,
      "mean_motion_rev_day": 14.94843047
    },
    {
      "epoch": "2026-04-14T19:46:38.739936Z",
      "apogee_km": 590.0841210191793,
      "perigee_km": 575.6344848935023,
      "latitude_deg": 5.1439696402503853e-05,
      "longitude_deg": 53.67353408055429,
      "height_km": 584.9008520883349,
      "semi_major_axis_km": 6960.9963029563405,
      "eccentricity": 0.0010379,
      "inclination_deg": 97.7995,
      "raan_deg": 193.3299,
      "arg_perigee_deg": 278.0423,
      "mean_anomaly_deg": 81.962,
      "mean_motion_rev_day": 14.94843259
    },
    {
      "epoch": "2026-04-15T19:52:30.411264Z",
      "apogee_km": 590.137459596549,
      "perigee_km": 575.5778431837016,
      "latitude_deg": 2.7027719948701303e-05,
      "longitude_deg": 52.21668531180652,
      "height_km": 585.4012095950155,
      "semi_major_axis_km": 6960.994651390125,
      "eccentricity": 0.0010458,
      "inclination_deg": 97.7994,
      "raan_deg": 194.328,
      "arg_perigee_deg": 274.0085,
      "mean_anomaly_deg": 85.994,
      "mean_motion_rev_day": 14.94843791
    },
    {
      "epoch": "2026-04-16T19:58:21.942624Z",
      "apogee_km": 590.1795826443667,
      "perigee_km": 575.5211354636713,
      "latitude_deg": -7.29855251402232e-05,
      "longitude_deg": 50.7605316325741,
      "height_km": 585.9250454256305,
      "semi_major_axis_km": 6960.987359054019,
      "eccentricity": 0.0010529,
      "inclination_deg": 97.7994,
      "raan_deg": 195.3262,
      "arg_perigee_deg": 269.8271,
      "mean_anomaly_deg": 90.1742,
      "mean_motion_rev_day": 14.9484614
    },
    {
      "epoch": "2026-04-17T23:17:00.262752Z",
      "apogee_km": 590.2067824261967,
      "perigee_km": 575.4812447508111,
      "latitude_deg": -4.8973556311638954e-05,
      "longitude_deg": 1.1102542873443821,
      "height_km": 586.5103068282515,
      "semi_major_axis_km": 6960.981013588504,
      "eccentricity": 0.00105772,
      "inclination_deg": 97.7993,
      "raan_deg": 196.4572,
      "arg_perigee_deg": 265.2196,
      "mean_anomaly_deg": 94.7816,
      "mean_motion_rev_day": 14.94848184
    },
    {
      "epoch": "2026-04-18T20:10:04.692576Z",
      "apogee_km": 590.198373531025,
      "perigee_km": 575.4703503234605,
      "latitude_deg": -2.0668997437520717e-05,
      "longitude_deg": 47.84929429921759,
      "height_km": 586.9243909803964,
      "semi_major_axis_km": 6960.9713619272425,
      "eccentricity": 0.0010579,
      "inclination_deg": 97.7992,
      "raan_deg": 197.3224,
      "arg_perigee_deg": 261.9029,
      "mean_anomaly_deg": 98.0991,
      "mean_motion_rev_day": 14.94851293
    },
    {
      "epoch": "2026-04-19T20:15:55.708992Z",
      "apogee_km": 590.1682853608345,
      "perigee_km": 575.4667494201058,
      "latitude_deg": 1.9017470559473925e-05,
      "longitude_deg": 46.395170083266436,
      "height_km": 587.3987892454551,
      "semi_major_axis_km": 6960.95451739047,
      "eccentricity": 0.001056,
      "inclination_deg": 97.7991,
      "raan_deg": 198.3205,
      "arg_perigee_deg": 257.9996,
      "mean_anomaly_deg": 102.0041,
      "mean_motion_rev_day": 14.94856719
    }
  ]
}